{
  "links" : {
    "next" : "https://api.nasa.gov/neo/rest/v1/feed?start_date=2006-06-09&end_date=2006-06-09&detailed=true&api_key=t0TVs3DtDT2H8Oy2Zy8m2eVrNsAVKAexjcZXUckd",
    "prev" : "https://api.nasa.gov/neo/rest/v1/feed?start_date=2006-06-07&end_date=2006-06-07&detailed=true&api_key=t0TVs3DtDT2H8Oy2Zy8m2eVrNsAVKAexjcZXUckd",
    "self" : "https://api.nasa.gov/neo/rest/v1/feed?start_date=2006-06-08&end_date=2006-06-08&detailed=true&api_key=t0TVs3DtDT2H8Oy2Zy8m2eVrNsAVKAexjcZXUckd"
  },
  "element_count" : 4,
  "near_earth_objects" : {
    "2006-06-08" : [ {
      "links" : {
        "self" : "https://api.nasa.gov/neo/rest/v1/neo/3332533?api_key=t0TVs3DtDT2H8Oy2Zy8m2eVrNsAVKAexjcZXUckd"
      },
      "neo_reference_id" : "3332533",
      "name" : "(2006 JZ25)",
      "nasa_jpl_url" : "http://ssd.jpl.nasa.gov/sbdb.cgi?sstr=3332533",
      "absolute_magnitude_h" : 19.0,
      "estimated_diameter" : {
        "kilometers" : {
          "estimated_diameter_min" : 0.4212646106,
          "estimated_diameter_max" : 0.9419763057
        },
        "meters" : {
          "estimated_diameter_min" : 421.2646105562,
          "estimated_diameter_max" : 941.9763057186
        },
        "miles" : {
          "estimated_diameter_min" : 0.2617616123,
          "estimated_diameter_max" : 0.5853167591
        },
        "feet" : {
          "estimated_diameter_min" : 1382.1017848971,
          "estimated_diameter_max" : 3090.4735428537
        }
      },
      "is_potentially_hazardous_asteroid" : false,
      "close_approach_data" : [ {
        "close_approach_date" : "2006-06-08",
        "epoch_date_close_approach" : 1149750000000,
        "relative_velocity" : {
          "kilometers_per_second" : "11.4519221708",
          "kilometers_per_hour" : "41226.9198149675",
          "miles_per_hour" : "25616.8047039169"
        },
        "miss_distance" : {
          "astronomical" : "0.2933268471",
          "lunar" : "114.1041488647",
          "kilometers" : "43881072",
          "miles" : "27266434"
        },
        "orbiting_body" : "Earth"
      } ],
      "orbital_data" : {
        "orbit_id" : "39",
        "orbit_determination_date" : "2017-04-06 09:08:40",
        "orbit_uncertainty" : "0",
        "minimum_orbit_intersection" : ".143759",
        "jupiter_tisserand_invariant" : "3.281",
        "epoch_osculation" : "2458000.5",
        "eccentricity" : ".5480561711671513",
        "semi_major_axis" : "2.407058242098242",
        "inclination" : "10.31183595561914",
        "ascending_node_longitude" : "337.9491464920158",
        "orbital_period" : "1364.043828546426",
        "perihelion_distance" : "1.087855118157545",
        "perihelion_argument" : "305.7262085428634",
        "aphelion_distance" : "3.726261366038938",
        "perihelion_time" : "2457998.724158631320",
        "mean_anomaly" : ".4686820755650757",
        "mean_motion" : ".26392113835787",
        "equinox" : "J2000"
      }
    }, {
      "links" : {
        "self" : "https://api.nasa.gov/neo/rest/v1/neo/3334820?api_key=t0TVs3DtDT2H8Oy2Zy8m2eVrNsAVKAexjcZXUckd"
      },
      "neo_reference_id" : "3334820",
      "name" : "(2006 KF89)",
      "nasa_jpl_url" : "http://ssd.jpl.nasa.gov/sbdb.cgi?sstr=3334820",
      "absolute_magnitude_h" : 18.5,
      "estimated_diameter" : {
        "kilometers" : {
          "estimated_diameter_min" : 0.5303407233,
          "estimated_diameter_max" : 1.1858779086
        },
        "meters" : {
          "estimated_diameter_min" : 530.3407233187,
          "estimated_diameter_max" : 1185.8779085771
        },
        "miles" : {
          "estimated_diameter_min" : 0.3295383456,
          "estimated_diameter_max" : 0.7368701419
        },
        "feet" : {
          "estimated_diameter_min" : 1739.963058693,
          "estimated_diameter_max" : 3890.675677576
        }
      },
      "is_potentially_hazardous_asteroid" : false,
      "close_approach_data" : [ {
        "close_approach_date" : "2006-06-08",
        "epoch_date_close_approach" : 1149750000000,
        "relative_velocity" : {
          "kilometers_per_second" : "18.6168759399",
          "kilometers_per_hour" : "67020.7533836267",
          "miles_per_hour" : "41644.089789954"
        },
        "miss_distance" : {
          "astronomical" : "0.4923426908",
          "lunar" : "191.5213012695",
          "kilometers" : "73653416",
          "miles" : "45766112"
        },
        "orbiting_body" : "Earth"
      } ],
      "orbital_data" : {
        "orbit_id" : "34",
        "orbit_determination_date" : "2017-04-06 09:08:34",
        "orbit_uncertainty" : "1",
        "minimum_orbit_intersection" : ".477891",
        "jupiter_tisserand_invariant" : "3.679",
        "epoch_osculation" : "2458000.5",
        "eccentricity" : ".3091611017749233",
        "semi_major_axis" : "1.870199528584591",
        "inclination" : "38.17761993484031",
        "ascending_node_longitude" : "246.2580839486388",
        "orbital_period" : "934.1795191984354",
        "perihelion_distance" : "1.292006581788437",
        "perihelion_argument" : "72.59586314647791",
        "aphelion_distance" : "2.448392475380746",
        "perihelion_time" : "2457722.435698124124",
        "mean_anomaly" : "107.1562227795445",
        "mean_motion" : ".3853649032135653",
        "equinox" : "J2000"
      }
    }, {
      "links" : {
        "self" : "https://api.nasa.gov/neo/rest/v1/neo/3566697?api_key=t0TVs3DtDT2H8Oy2Zy8m2eVrNsAVKAexjcZXUckd"
      },
      "neo_reference_id" : "3566697",
      "name" : "(2011 KW15)",
      "nasa_jpl_url" : "http://ssd.jpl.nasa.gov/sbdb.cgi?sstr=3566697",
      "absolute_magnitude_h" : 19.4,
      "estimated_diameter" : {
        "kilometers" : {
          "estimated_diameter_min" : 0.3503926411,
          "estimated_diameter_max" : 0.7835017643
        },
        "meters" : {
          "estimated_diameter_min" : 350.3926411083,
          "estimated_diameter_max" : 783.5017643338
        },
        "miles" : {
          "estimated_diameter_min" : 0.2177238258,
          "estimated_diameter_max" : 0.4868452748
        },
        "feet" : {
          "estimated_diameter_min" : 1149.5821926537,
          "estimated_diameter_max" : 2570.543928497
        }
      },
      "is_potentially_hazardous_asteroid" : true,
      "close_approach_data" : [ {
        "close_approach_date" : "2006-06-08",
        "epoch_date_close_approach" : 1149750000000,
        "relative_velocity" : {
          "kilometers_per_second" : "31.5498565427",
          "kilometers_per_hour" : "113579.483553724",
          "miles_per_hour" : "70573.8741003681"
        },
        "miss_distance" : {
          "astronomical" : "0.4619135603",
          "lunar" : "179.6843719482",
          "kilometers" : "69101288",
          "miles" : "42937548"
        },
        "orbiting_body" : "Earth"
      } ],
      "orbital_data" : {
        "orbit_id" : "20",
        "orbit_determination_date" : "2016-07-24 06:23:25",
        "orbit_uncertainty" : "0",
        "minimum_orbit_intersection" : ".0441825",
        "jupiter_tisserand_invariant" : "5.203",
        "epoch_osculation" : "2457600.5",
        "eccentricity" : ".493867432838743",
        "semi_major_axis" : "1.169772515831136",
        "inclination" : "23.65624419914606",
        "ascending_node_longitude" : "283.4096823350386",
        "orbital_period" : "462.1155118724997",
        "perihelion_distance" : ".5920599664322947",
        "perihelion_argument" : "97.45280575524055",
        "aphelion_distance" : "1.747485065229976",
        "perihelion_time" : "2457643.682354868049",
        "mean_anomaly" : "326.359822699943",
        "mean_motion" : ".7790260027006539",
        "equinox" : "J2000"
      }
    }, {
      "links" : {
        "self" : "https://api.nasa.gov/neo/rest/v1/neo/2471323?api_key=t0TVs3DtDT2H8Oy2Zy8m2eVrNsAVKAexjcZXUckd"
      },
      "neo_reference_id" : "2471323",
      "name" : "471323 (2011 KW15)",
      "nasa_jpl_url" : "http://ssd.jpl.nasa.gov/sbdb.cgi?sstr=2471323",
      "absolute_magnitude_h" : 19.4,
      "estimated_diameter" : {
        "kilometers" : {
          "estimated_diameter_min" : 0.3503926411,
          "estimated_diameter_max" : 0.7835017643
        },
        "meters" : {
          "estimated_diameter_min" : 350.3926411083,
          "estimated_diameter_max" : 783.5017643338
        },
        "miles" : {
          "estimated_diameter_min" : 0.2177238258,
          "estimated_diameter_max" : 0.4868452748
        },
        "feet" : {
          "estimated_diameter_min" : 1149.5821926537,
          "estimated_diameter_max" : 2570.543928497
        }
      },
      "is_potentially_hazardous_asteroid" : true,
      "close_approach_data" : [ {
        "close_approach_date" : "2006-06-08",
        "epoch_date_close_approach" : 1149750000000,
        "relative_velocity" : {
          "kilometers_per_second" : "31.5498658784",
          "kilometers_per_hour" : "113579.5171622004",
          "miles_per_hour" : "70573.8949833684"
        },
        "miss_distance" : {
          "astronomical" : "0.4619138046",
          "lunar" : "179.684463501",
          "kilometers" : "69101320",
          "miles" : "42937568"
        },
        "orbiting_body" : "Earth"
      } ],
      "orbital_data" : {
        "orbit_id" : "22",
        "orbit_determination_date" : "2017-04-06 09:19:11",
        "orbit_uncertainty" : "0",
        "minimum_orbit_intersection" : ".0437754",
        "jupiter_tisserand_invariant" : "5.203",
        "epoch_osculation" : "2458000.5",
        "eccentricity" : ".4938564854124059",
        "semi_major_axis" : "1.169784152291741",
        "inclination" : "23.65651904988886",
        "ascending_node_longitude" : "283.3898259455584",
        "orbital_period" : "462.122407318729",
        "perihelion_distance" : ".5920786621498114",
        "perihelion_argument" : "97.48219523504955",
        "aphelion_distance" : "1.747489642433671",
        "perihelion_time" : "2458105.839266735099",
        "mean_anomaly" : "277.9391965763725",
        "mean_motion" : ".7790143786551028",
        "equinox" : "J2000"
      }
    } ]
  }
}